0 COSMOS 1275 DEB
1 18275U 81053LT  13283.91157532 -.00000115  00000-0 -15691-3 0  5192
2 18275 082.9315 327.5458 0134839 064.9901 050.8169 13.63161518424334
0 COSMOS 1275 DEB
1 18275U 81053LT  13288.07784969  .00000064  00000-0  58430-4 0  5206
2 18275 082.9314 324.5155 0134511 053.4133 336.5172 13.63162902424900
0 COSMOS 1275 DEB
1 18275U 81053LT  13290.88444714  .00000210  00000-0  23353-3 0  5218
2 18275 082.9316 322.4746 0134381 045.6953 069.6392 13.63165675425283
0 COSMOS 1275 DEB
1 18275U 81053LT  13293.06887154  .00000314  00000-0  35793-3 0  5227
2 18275 082.9312 320.8846 0134365 039.6725 349.5365 13.63167737425588
0 COSMOS 1275 DEB
1 18275U 81053LT  13296.08342168  .00000444  00000-0  51450-3 0  5236
2 18275 082.9311 318.6913 0134381 031.3547 023.2494 13.63171809425995
